{
  "norad_id": 46141,
  "name": "STARLINK-1596",
  "history": [
    {
      "epoch": "2026-03-28T10:16:04.845504Z",
      "apogee_km": 424.7617313691544,
      "perigee_km": 422.5873282593029,
      "latitude_deg": 6.27916904296605e-05,
      "longitude_deg": 161.5043293456541,
      "height_km": 423.5066427386916,
      "semi_major_axis_km": 6801.811529814228,
      "eccentricity": 0.00015984,
      "inclination_deg": 53.0414,
      "raan_deg": 141.3729,
      "arg_perigee_deg": 347.6248,
      "mean_anomaly_deg": 12.472,
      "mean_motion_rev_day": 15.47625479
    }
  ]
}